GSAT0101 (PRN E11)      
1 37846U 11060A   20289.20196539 -.00000068  00000-0  00000+0 0  9996
2 37846  56.7032  37.9981 0000668 345.7369  14.2583  1.70475157 55940
GSAT0102 (PRN E12)      
1 37847U 11060B   20290.32654609 -.00000072  00000-0  00000+0 0  9994
2 37847  56.7045  37.9667 0002493 293.0186  83.2857  1.70475279 55963
GSAT0103 (PRN E19)      
1 38857U 12055A   20289.83064559  .00000052  00000-0  00000+0 0  9991
2 38857  54.9943 158.4687 0001553 264.7996  95.2966  1.70473755 49866
GSAT0104 (PRN E20)      
1 38858U 12055B   20289.17844745  .00000050  00000-0  00000-0 0  9991
2 38858  54.9952 158.4860 0000457 305.3665  54.7410  1.70473716 49857
GSAT0201 (PRN E18)      
1 40128U 14050A   20289.59863269 -.00000081  00000-0  00000-0 0  9994
2 40128  50.5485 356.5826 1658012 103.3185 275.6354  1.85519043 39902
GSAT0202 (PRN E14)      
1 40129U 14050B   20290.40092653 -.00000085  00000-0  00000+0 0  9991
2 40129  50.5836 355.5915 1655643 104.1595 274.7362  1.85519706 42057
GSAT0203 (PRN E26)      
1 40544U 15017A   20288.39650297 -.00000065  00000-0  00000-0 0  9994
2 40544  56.4967  38.1375 0004050 226.3974 133.5669  1.70474984 34548
GSAT0204 (PRN E22)      
1 40545U 15017B   20290.52385338 -.00000073  00000-0  00000+0 0  9992
2 40545  56.5045  38.0952 0003523 189.1331 170.8581  1.70475035 34583
GSAT0205 (PRN E24)      
1 40889U 15045A   20288.41964093  .00000014  00000-0  00000-0 0  9995
2 40889  56.0632 278.8239 0003932 336.2189  23.7619  1.70474815 31695
GSAT0206 (PRN E30)      
1 40890U 15045B   20288.63918650  .00000012  00000-0  00000-0 0  9997
2 40890  56.0620 278.8141 0003161 310.4642  49.5056  1.70474788 31722
GSAT0209 (PRN E09)      
1 41174U 15079A   20288.81284942  .00000050  00000-0  00000-0 0  9992
2 41174  55.0093 158.1955 0003454 334.8977  25.1960  1.70472916 29632
GSAT0208 (PRN E08)      
1 41175U 15079B   20289.03258622  .00000050  00000-0  00000+0 0  9993
2 41175  55.0079 158.1888 0002754 342.9110  17.1912  1.70472902 30054
GSAT0211 (PRN E02)      
1 41549U 16030A   20289.74026284  .00000004  00000-0  00000-0 0  9991
2 41549  56.2045 278.6524 0004961 297.5376  62.4009  1.70474552 27375
GSAT0210 (PRN E01)      
1 41550U 16030B   20290.03314397  .00000002  00000-0  00000-0 0  9990
2 41550  56.2032 278.6462 0004907 274.4223  85.5085  1.70474446 27371
GSAT0207 (PRN E07)      
1 41859U 16069A   20289.10566377  .00000049  00000-0  00000+0 0  9997
2 41859  54.6678 158.5202 0002935 318.6330  41.4562  1.70472889 24320
GSAT0212 (PRN E03)      
1 41860U 16069B   20288.95911431  .00000049  00000-0  00000-0 0  9997
2 41860  54.6652 158.5230 0002826 356.2960   3.8127  1.70472848 24347
GSAT0213 (PRN E04)      
1 41861U 16069C   20289.91145095  .00000051  00000-0  00000-0 0  9993
2 41861  54.6677 158.5006 0001775 285.2335  74.8608  1.70473021 24363
GSAT0214 (PRN E05)      
1 41862U 16069D   20287.12556130  .00000041  00000-0  00000-0 0  9990
2 41862  54.6656 158.5735 0001231 307.1012  52.9888  1.70472951 24305
GSAT0215 (PRN E21)      
1 43055U 17079A   20288.78839909  .00000011  00000-0  00000-0 0  9996
2 43055  56.1798 278.5205 0004275 269.7330  90.2138  1.70473706 17671
GSAT0216 (PRN E25)      
1 43056U 17079B   20289.66765062  .00000004  00000-0  00000+0 0  9994
2 43056  56.1796 278.4960 0006121 271.7377  88.1813  1.70473821 17677
GSAT0217 (PRN E27)      
1 43057U 17079C   20288.71456069  .00000012  00000-0  00000-0 0  9994
2 43057  56.1781 278.5227 0005609 280.0707  79.8623  1.70473861 17679
GSAT0218 (PRN E31)      
1 43058U 17079D   20288.93456348  .00000010  00000-0  00000-0 0  9997
2 43058  56.1783 278.5141 0006571 268.9737  90.9456  1.70473783 17709
GSAT0221 (PRN E15)      
1 43564U 18060A   20290.00717143 -.00000071  00000-0  00000+0 0  9991
2 43564  56.8842  37.7518 0004123 248.6626 111.2910  1.70476025 13889
GSAT0222 (PRN E33)      
1 43565U 18060B   20290.22702113 -.00000072  00000-0  00000-0 0  9999
2 43565  56.8856  37.7454 0003549 254.8240 105.1345  1.70476054 13927
GSAT0219 (PRN E36)      
1 43566U 18060C   20290.44737543 -.00000073  00000-0  00000+0 0  9999
2 43566  56.8873  37.7413 0003476 247.0460 112.9152  1.70475880 13905
GSAT0220 (PRN E13)      
1 43567U 18060D   20290.08067040 -.00000071  00000-0  00000+0 0  9996
2 43567  56.8866  37.7518 0003543 248.6777 111.2821  1.70475623 13873
